[{"OBJECT_NAME":"OBJECT V","OBJECT_ID":"2023-085V","EPOCH":"2026-03-09T21:44:00.165408","MEAN_MOTION":15.30745852,"ECCENTRICITY":0.00069081,"INCLINATION":97.4843,"RA_OF_ASC_NODE":179.3833,"ARG_OF_PERICENTER":71.0503,"MEAN_ANOMALY":289.1485,"EPHEMERIS_TYPE":0,"CLASSIFICATION_TYPE":"U","NORAD_CAT_ID":57023,"ELEMENT_SET_NO":999,"REV_AT_EPOCH":15149,"BSTAR":0.00067780507,"MEAN_MOTION_DOT":0.00020109,"MEAN_MOTION_DDOT":0},{"OBJECT_NAME":"STARLINK-35079","OBJECT_ID":"2025-210AD","EPOCH":"2026-03-09T21:58:45.750720","MEAN_MOTION":15.3021431,"ECCENTRICITY":8.524e-5,"INCLINATION":53.1613,"RA_OF_ASC_NODE":306.1667,"ARG_OF_PERICENTER":91.5703,"MEAN_ANOMALY":268.5395,"EPHEMERIS_TYPE":0,"CLASSIFICATION_TYPE":"U","NORAD_CAT_ID":65649,"ELEMENT_SET_NO":999,"REV_AT_EPOCH":2776,"BSTAR":0.0011866069,"MEAN_MOTION_DOT":0.00034966,"MEAN_MOTION_DDOT":0}]
